[{"OBJECT_NAME":"FLOCK 4H-36","OBJECT_ID":"2025-276CB","EPOCH":"2026-03-09T17:10:47.526240","MEAN_MOTION":15.19196799,"ECCENTRICITY":0.00014584,"INCLINATION":97.4313,"RA_OF_ASC_NODE":144.1032,"ARG_OF_PERICENTER":333.1863,"MEAN_ANOMALY":26.9296,"EPHEMERIS_TYPE":0,"CLASSIFICATION_TYPE":"U","NORAD_CAT_ID":66739,"ELEMENT_SET_NO":999,"REV_AT_EPOCH":1532,"BSTAR":0.0003489892,"MEAN_MOTION_DOT":7.279e-5,"MEAN_MOTION_DDOT":0},{"OBJECT_NAME":"SPACEMOBILE-006","OBJECT_ID":"2025-309A","EPOCH":"2026-03-09T23:22:27.104448","MEAN_MOTION":15.18016184,"ECCENTRICITY":0.00108499,"INCLINATION":52.9941,"RA_OF_ASC_NODE":65.8805,"ARG_OF_PERICENTER":181.4114,"MEAN_ANOMALY":178.6851,"EPHEMERIS_TYPE":0,"CLASSIFICATION_TYPE":"U","NORAD_CAT_ID":67232,"ELEMENT_SET_NO":999,"REV_AT_EPOCH":1152,"BSTAR":0.00015458852,"MEAN_MOTION_DOT":2.868e-5,"MEAN_MOTION_DDOT":0}]
